KUIPER-00131
1 68573U 26072A   26114.83335647  .00024862  00000+0  93843-3 0  9990
2 68573  51.8761  75.2436 0006993 168.5271 334.9811 15.26858659  4090
KUIPER-00189
1 68574U 26072B   26114.83335647 -.02000380  00000+0 -12682+0 0  9992
2 68574  51.8873  76.0893 0001442  80.2912 343.5108 15.12265422  3670
KUIPER-00192
1 68575U 26072C   26114.38622263 -.00250072  00000+0 -69664-2 0  9994
2 68575  51.8749  77.0892 0005040 167.7782 192.3327 15.37211130  3102
KUIPER-00193
1 68576U 26072D   26114.51457955  .00020308  00000+0  54724-3 0  9991
2 68576  51.8751  76.4484 0003632 148.5584 211.5620 15.37798746  3123
KUIPER-00194
1 68577U 26072E   26114.51011223  .00022594  00000+0  60174-3 0  9991
2 68577  51.8765  76.4176 0002823 142.7293 217.3890 15.38093563  3120
KUIPER-00229
1 68578U 26072F   26114.83335647  .00046518  00000+0  16878-2 0  9999
2 68578  51.8771  75.2984 0007568 185.3414 323.3582 15.27848020  4212
KUIPER-00230
1 68579U 26072G   26114.50458904  .00021639  00000+0  56774-3 0  9993
2 68579  51.8768  76.3788 0001711 125.7114 234.4032 15.38584903  3122
KUIPER-00231
1 68580U 26072H   26114.51066278  .00030745  00000+0  81157-3 0  9996
2 68580  51.8747  76.4247 0002578 147.4825 212.6321 15.38194919  3127
KUIPER-00234
1 68581U 26072J   26114.50570027  .00022234  00000+0  58242-3 0  9991
2 68581  51.8759  76.3918 0002139 128.1128 232.0052 15.38615979  3121
KUIPER-00236
1 68582U 26072K   26114.50691127  .00022484  00000+0  59216-3 0  9996
2 68582  51.8762  76.3979 0002606 138.3606 221.7580 15.38441857  3129
KUIPER-00244
1 68583U 26072L   26114.51197868  .00024703  00000+0  65599-3 0  9998
2 68583  51.8758  76.4315 0003829 159.4299 200.6843 15.38127902  3120
KUIPER-00253
1 68584U 26072M   26114.51787914  .00023799  00000+0  64254-3 0  9997
2 68584  51.8715  76.4692 0005121 169.7300 190.3792 15.37631976  3124
KUIPER-00254
1 68585U 26072N   26114.52531527 -.00001859  00000+0 -39763-4 0  9999
2 68585  51.8719  76.5173 0007345 174.3529 185.7541 15.37049938  3120
KUIPER-00263
1 68586U 26072P   26114.50422104  .00026002  00000+0  67733-3 0  9990
2 68586  51.8768  76.3793 0002153 100.8060 259.3170 15.38694735  3125
KUIPER-00269
1 68587U 26072Q   26114.45054674  .00018515  00000+0  50057-3 0  9999
2 68587  51.8742  76.7694 0004445 154.0169 206.1042 15.37758639  3119
KUIPER-00272
1 68588U 26072R   26114.83335647 -.00622836  00000+0 -20017-1 0  9994
2 68588  51.8737  74.9615 0005695 167.3944 126.0984 15.33915472  2696
KUIPER-00285
1 68589U 26072S   26114.51995760  .00019694  00000+0  53575-3 0  9995
2 68589  51.8734  76.4832 0006266 174.0061 186.1001 15.37513812  3124
