[{"OBJECT_NAME":"KUIPER-00131","OBJECT_ID":"2026-072A","EPOCH":"2026-04-24T20:00:01.999008","MEAN_MOTION":15.26858659,"ECCENTRICITY":0.0006993,"INCLINATION":51.8761,"RA_OF_ASC_NODE":75.2436,"ARG_OF_PERICENTER":168.5271,"MEAN_ANOMALY":334.9811,"EPHEMERIS_TYPE":0,"CLASSIFICATION_TYPE":"U","NORAD_CAT_ID":68573,"ELEMENT_SET_NO":999,"REV_AT_EPOCH":409,"BSTAR":0.00093843,"MEAN_MOTION_DOT":0.00024862,"MEAN_MOTION_DDOT":0},{"OBJECT_NAME":"KUIPER-00189","OBJECT_ID":"2026-072B","EPOCH":"2026-04-24T20:00:01.999008","MEAN_MOTION":15.12265422,"ECCENTRICITY":0.0001442,"INCLINATION":51.8873,"RA_OF_ASC_NODE":76.0893,"ARG_OF_PERICENTER":80.2912,"MEAN_ANOMALY":343.5108,"EPHEMERIS_TYPE":0,"CLASSIFICATION_TYPE":"U","NORAD_CAT_ID":68574,"ELEMENT_SET_NO":999,"REV_AT_EPOCH":367,"BSTAR":-0.12682,"MEAN_MOTION_DOT":-0.0200038,"MEAN_MOTION_DDOT":0},{"OBJECT_NAME":"KUIPER-00192","OBJECT_ID":"2026-072C","EPOCH":"2026-04-24T09:16:09.635232","MEAN_MOTION":15.3721113,"ECCENTRICITY":0.000504,"INCLINATION":51.8749,"RA_OF_ASC_NODE":77.0892,"ARG_OF_PERICENTER":167.7782,"MEAN_ANOMALY":192.3327,"EPHEMERIS_TYPE":0,"CLASSIFICATION_TYPE":"U","NORAD_CAT_ID":68575,"ELEMENT_SET_NO":999,"REV_AT_EPOCH":310,"BSTAR":-0.0069664,"MEAN_MOTION_DOT":-0.00250072,"MEAN_MOTION_DDOT":0},{"OBJECT_NAME":"KUIPER-00193","OBJECT_ID":"2026-072D","EPOCH":"2026-04-24T12:20:59.673120","MEAN_MOTION":15.37798746,"ECCENTRICITY":0.0003632,"INCLINATION":51.8751,"RA_OF_ASC_NODE":76.4484,"ARG_OF_PERICENTER":148.5584,"MEAN_ANOMALY":211.562,"EPHEMERIS_TYPE":0,"CLASSIFICATION_TYPE":"U","NORAD_CAT_ID":68576,"ELEMENT_SET_NO":999,"REV_AT_EPOCH":312,"BSTAR":0.00054724,"MEAN_MOTION_DOT":0.00020308,"MEAN_MOTION_DDOT":0},{"OBJECT_NAME":"KUIPER-00194","OBJECT_ID":"2026-072E","EPOCH":"2026-04-24T12:14:33.696672","MEAN_MOTION":15.38093563,"ECCENTRICITY":0.0002823,"INCLINATION":51.8765,"RA_OF_ASC_NODE":76.4176,"ARG_OF_PERICENTER":142.7293,"MEAN_ANOMALY":217.389,"EPHEMERIS_TYPE":0,"CLASSIFICATION_TYPE":"U","NORAD_CAT_ID":68577,"ELEMENT_SET_NO":999,"REV_AT_EPOCH":312,"BSTAR":0.00060174,"MEAN_MOTION_DOT":0.00022594,"MEAN_MOTION_DDOT":0},{"OBJECT_NAME":"KUIPER-00229","OBJECT_ID":"2026-072F","EPOCH":"2026-04-24T20:00:01.999008","MEAN_MOTION":15.2784802,"ECCENTRICITY":0.0007568,"INCLINATION":51.8771,"RA_OF_ASC_NODE":75.2984,"ARG_OF_PERICENTER":185.3414,"MEAN_ANOMALY":323.3582,"EPHEMERIS_TYPE":0,"CLASSIFICATION_TYPE":"U","NORAD_CAT_ID":68578,"ELEMENT_SET_NO":999,"REV_AT_EPOCH":421,"BSTAR":0.0016878,"MEAN_MOTION_DOT":0.00046518,"MEAN_MOTION_DDOT":0},{"OBJECT_NAME":"KUIPER-00230","OBJECT_ID":"2026-072G","EPOCH":"2026-04-24T12:06:36.493056","MEAN_MOTION":15.38584903,"ECCENTRICITY":0.0001711,"INCLINATION":51.8768,"RA_OF_ASC_NODE":76.3788,"ARG_OF_PERICENTER":125.7114,"MEAN_ANOMALY":234.4032,"EPHEMERIS_TYPE":0,"CLASSIFICATION_TYPE":"U","NORAD_CAT_ID":68579,"ELEMENT_SET_NO":999,"REV_AT_EPOCH":312,"BSTAR":0.00056774,"MEAN_MOTION_DOT":0.00021639,"MEAN_MOTION_DDOT":0},{"OBJECT_NAME":"KUIPER-00231","OBJECT_ID":"2026-072H","EPOCH":"2026-04-24T12:15:21.264192","MEAN_MOTION":15.38194919,"ECCENTRICITY":0.0002578,"INCLINATION":51.8747,"RA_OF_ASC_NODE":76.4247,"ARG_OF_PERICENTER":147.4825,"MEAN_ANOMALY":212.6321,"EPHEMERIS_TYPE":0,"CLASSIFICATION_TYPE":"U","NORAD_CAT_ID":68580,"ELEMENT_SET_NO":999,"REV_AT_EPOCH":312,"BSTAR":0.00081157,"MEAN_MOTION_DOT":0.00030745,"MEAN_MOTION_DDOT":0},{"OBJECT_NAME":"KUIPER-00234","OBJECT_ID":"2026-072J","EPOCH":"2026-04-24T12:08:12.503328","MEAN_MOTION":15.38615979,"ECCENTRICITY":0.0002139,"INCLINATION":51.8759,"RA_OF_ASC_NODE":76.3918,"ARG_OF_PERICENTER":128.1128,"MEAN_ANOMALY":232.0052,"EPHEMERIS_TYPE":0,"CLASSIFICATION_TYPE":"U","NORAD_CAT_ID":68581,"ELEMENT_SET_NO":999,"REV_AT_EPOCH":312,"BSTAR":0.00058242,"MEAN_MOTION_DOT":0.00022234,"MEAN_MOTION_DDOT":0},{"OBJECT_NAME":"KUIPER-00236","OBJECT_ID":"2026-072K","EPOCH":"2026-04-24T12:09:57.133728","MEAN_MOTION":15.38441857,"ECCENTRICITY":0.0002606,"INCLINATION":51.8762,"RA_OF_ASC_NODE":76.3979,"ARG_OF_PERICENTER":138.3606,"MEAN_ANOMALY":221.758,"EPHEMERIS_TYPE":0,"CLASSIFICATION_TYPE":"U","NORAD_CAT_ID":68582,"ELEMENT_SET_NO":999,"REV_AT_EPOCH":312,"BSTAR":0.00059216,"MEAN_MOTION_DOT":0.00022484,"MEAN_MOTION_DDOT":0},{"OBJECT_NAME":"KUIPER-00244","OBJECT_ID":"2026-072L","EPOCH":"2026-04-24T12:17:14.957952","MEAN_MOTION":15.38127902,"ECCENTRICITY":0.0003829,"INCLINATION":51.8758,"RA_OF_ASC_NODE":76.4315,"ARG_OF_PERICENTER":159.4299,"MEAN_ANOMALY":200.6843,"EPHEMERIS_TYPE":0,"CLASSIFICATION_TYPE":"U","NORAD_CAT_ID":68583,"ELEMENT_SET_NO":999,"REV_AT_EPOCH":312,"BSTAR":0.00065599,"MEAN_MOTION_DOT":0.00024703,"MEAN_MOTION_DDOT":0},{"OBJECT_NAME":"KUIPER-00253","OBJECT_ID":"2026-072M","EPOCH":"2026-04-24T12:25:44.757696","MEAN_MOTION":15.37631976,"ECCENTRICITY":0.0005121,"INCLINATION":51.8715,"RA_OF_ASC_NODE":76.4692,"ARG_OF_PERICENTER":169.73,"MEAN_ANOMALY":190.3792,"EPHEMERIS_TYPE":0,"CLASSIFICATION_TYPE":"U","NORAD_CAT_ID":68584,"ELEMENT_SET_NO":999,"REV_AT_EPOCH":312,"BSTAR":0.00064254,"MEAN_MOTION_DOT":0.00023799,"MEAN_MOTION_DDOT":0},{"OBJECT_NAME":"KUIPER-00254","OBJECT_ID":"2026-072N","EPOCH":"2026-04-24T12:36:27.239328","MEAN_MOTION":15.37049938,"ECCENTRICITY":0.0007345,"INCLINATION":51.8719,"RA_OF_ASC_NODE":76.5173,"ARG_OF_PERICENTER":174.3529,"MEAN_ANOMALY":185.7541,"EPHEMERIS_TYPE":0,"CLASSIFICATION_TYPE":"U","NORAD_CAT_ID":68585,"ELEMENT_SET_NO":999,"REV_AT_EPOCH":312,"BSTAR":-3.9763e-5,"MEAN_MOTION_DOT":-1.859e-5,"MEAN_MOTION_DDOT":0},{"OBJECT_NAME":"KUIPER-00263","OBJECT_ID":"2026-072P","EPOCH":"2026-04-24T12:06:04.697856","MEAN_MOTION":15.38694735,"ECCENTRICITY":0.0002153,"INCLINATION":51.8768,"RA_OF_ASC_NODE":76.3793,"ARG_OF_PERICENTER":100.806,"MEAN_ANOMALY":259.317,"EPHEMERIS_TYPE":0,"CLASSIFICATION_TYPE":"U","NORAD_CAT_ID":68586,"ELEMENT_SET_NO":999,"REV_AT_EPOCH":312,"BSTAR":0.00067733,"MEAN_MOTION_DOT":0.00026002,"MEAN_MOTION_DDOT":0},{"OBJECT_NAME":"KUIPER-00269","OBJECT_ID":"2026-072Q","EPOCH":"2026-04-24T10:48:47.238336","MEAN_MOTION":15.37758639,"ECCENTRICITY":0.0004445,"INCLINATION":51.8742,"RA_OF_ASC_NODE":76.7694,"ARG_OF_PERICENTER":154.0169,"MEAN_ANOMALY":206.1042,"EPHEMERIS_TYPE":0,"CLASSIFICATION_TYPE":"U","NORAD_CAT_ID":68587,"ELEMENT_SET_NO":999,"REV_AT_EPOCH":311,"BSTAR":0.00050057,"MEAN_MOTION_DOT":0.00018515,"MEAN_MOTION_DDOT":0},{"OBJECT_NAME":"KUIPER-00272","OBJECT_ID":"2026-072R","EPOCH":"2026-04-24T20:00:01.999008","MEAN_MOTION":15.33915472,"ECCENTRICITY":0.0005695,"INCLINATION":51.8737,"RA_OF_ASC_NODE":74.9615,"ARG_OF_PERICENTER":167.3944,"MEAN_ANOMALY":126.0984,"EPHEMERIS_TYPE":0,"CLASSIFICATION_TYPE":"U","NORAD_CAT_ID":68588,"ELEMENT_SET_NO":999,"REV_AT_EPOCH":269,"BSTAR":-0.020017,"MEAN_MOTION_DOT":-0.00622836,"MEAN_MOTION_DDOT":0},{"OBJECT_NAME":"KUIPER-00285","OBJECT_ID":"2026-072S","EPOCH":"2026-04-24T12:28:44.336640","MEAN_MOTION":15.37513812,"ECCENTRICITY":0.0006266,"INCLINATION":51.8734,"RA_OF_ASC_NODE":76.4832,"ARG_OF_PERICENTER":174.0061,"MEAN_ANOMALY":186.1001,"EPHEMERIS_TYPE":0,"CLASSIFICATION_TYPE":"U","NORAD_CAT_ID":68589,"ELEMENT_SET_NO":999,"REV_AT_EPOCH":312,"BSTAR":0.00053575,"MEAN_MOTION_DOT":0.00019694,"MEAN_MOTION_DDOT":0}]
